{
  "norad_id": 66492,
  "name": "STARLINK-35673",
  "history": [
    {
      "epoch": "2026-04-16T18:31:45.950304Z",
      "apogee_km": 483.68044347620344,
      "perigee_km": 482.3411474265313,
      "latitude_deg": 1.5638956650072332e-05,
      "longitude_deg": 12.728381760684265,
      "height_km": 482.53737132709966,
      "semi_major_axis_km": 6861.1477954513675,
      "eccentricity": 9.76e-05,
      "inclination_deg": 42.9998,
      "raan_deg": 135.5848,
      "arg_perigee_deg": 291.8944,
      "mean_anomaly_deg": 68.1804,
      "mean_motion_rev_day": 15.27592791
    },
    {
      "epoch": "2026-04-17T18:04:06.790368Z",
      "apogee_km": 483.8693930967229,
      "perigee_km": 482.20747918258076,
      "latitude_deg": 3.021340109626379e-06,
      "longitude_deg": 13.136818607223317,
      "height_km": 482.6386097817518,
      "semi_major_axis_km": 6861.1754361396515,
      "eccentricity": 0.00012111,
      "inclination_deg": 43.0007,
      "raan_deg": 130.0468,
      "arg_perigee_deg": 282.2597,
      "mean_anomaly_deg": 77.8119,
      "mean_motion_rev_day": 15.2758356
    },
    {
      "epoch": "2026-04-18T17:36:27.099072Z",
      "apogee_km": 483.84560849895297,
      "perigee_km": 482.11386263489567,
      "latitude_deg": 1.5770819415007228e-06,
      "longitude_deg": 13.543186409089559,
      "height_km": 482.4395228018595,
      "semi_major_axis_km": 6861.116735566924,
      "eccentricity": 0.0001262,
      "inclination_deg": 43.0011,
      "raan_deg": 124.5045,
      "arg_perigee_deg": 291.4677,
      "mean_anomaly_deg": 68.604,
      "mean_motion_rev_day": 15.27603164
    },
    {
      "epoch": "2026-04-19T17:08:47.852736Z",
      "apogee_km": 483.9754125932095,
      "perigee_km": 482.00901296082793,
      "latitude_deg": 4.6617775608055935e-05,
      "longitude_deg": 13.951543529261874,
      "height_km": 482.5536224401616,
      "semi_major_axis_km": 6861.129212777018,
      "eccentricity": 0.0001433,
      "inclination_deg": 42.9992,
      "raan_deg": 118.966,
      "arg_perigee_deg": 282.6446,
      "mean_anomaly_deg": 77.4246,
      "mean_motion_rev_day": 15.27598997
    },
    {
      "epoch": "2026-04-20T10:24:32.444640Z",
      "apogee_km": 483.7959811515875,
      "perigee_km": 482.43361099495996,
      "latitude_deg": 3.315593678885546e-06,
      "longitude_deg": 110.24875540201113,
      "height_km": 482.9200381159204,
      "semi_major_axis_km": 6861.251796073274,
      "eccentricity": 9.928e-05,
      "inclination_deg": 43.0015,
      "raan_deg": 114.908,
      "arg_perigee_deg": 267.5832,
      "mean_anomaly_deg": 92.4906,
      "mean_motion_rev_day": 15.27558059
    },
    {
      "epoch": "2026-04-21T16:13:31.521792Z",
      "apogee_km": 483.88203602864814,
      "perigee_km": 482.212023835762,
      "latitude_deg": -1.1455227337888909e-05,
      "longitude_deg": 14.758165366207024,
      "height_km": 482.7986212580928,
      "semi_major_axis_km": 6861.184029932205,
      "eccentricity": 0.0001217,
      "inclination_deg": 42.9983,
      "raan_deg": 107.8881,
      "arg_perigee_deg": 271.7,
      "mean_anomaly_deg": 88.3712,
      "mean_motion_rev_day": 15.2758069
    },
    {
      "epoch": "2026-04-22T15:45:51.440832Z",
      "apogee_km": 484.73946398739554,
      "perigee_km": 481.277330020067,
      "latitude_deg": 5.579028092018158e-05,
      "longitude_deg": 15.170231742310492,
      "height_km": 482.66449734196493,
      "semi_major_axis_km": 6861.145397003731,
      "eccentricity": 0.0002523,
      "inclination_deg": 43.0006,
      "raan_deg": 102.3498,
      "arg_perigee_deg": 274.0254,
      "mean_anomaly_deg": 86.031,
      "mean_motion_rev_day": 15.27593592
    },
    {
      "epoch": "2026-04-22T15:45:51.441696Z",
      "apogee_km": 484.7391895415785,
      "perigee_km": 481.2776044658831,
      "latitude_deg": 5.2649871030933467e-05,
      "longitude_deg": 15.170224783460379,
      "height_km": 482.66451660468636,
      "semi_major_axis_km": 6861.145397003731,
      "eccentricity": 0.00025226,
      "inclination_deg": 43.0006,
      "raan_deg": 102.3498,
      "arg_perigee_deg": 274.0254,
      "mean_anomaly_deg": 86.031,
      "mean_motion_rev_day": 15.27593592
    }
  ]
}